OBJECT_NAME,OBJECT_ID,EPOCH,MEAN_MOTION,ECCENTRICITY,INCLINATION,RA_OF_ASC_NODE,ARG_OF_PERICENTER,MEAN_ANOMALY,EPHEMERIS_TYPE,CLASSIFICATION_TYPE,NORAD_CAT_ID,ELEMENT_SET_NO,REV_AT_EPOCH,BSTAR,MEAN_MOTION_DOT,MEAN_MOTION_DDOT
STARLINK-1528,2021-012A,2024-08-13T22:50:46.279392,15.06413847,.0001448,53.0526,122.7390,91.2713,268.8442,0,U,47620,999,19365,.126E-2,.18543E-3,0
STARLINK-1609,2021-012B,2024-08-14T00:15:41.632128,15.06406162,.0001466,53.0546,122.4734,87.3967,272.7189,0,U,47621,999,19315,.21171E-2,.31399E-3,0
STARLINK-1645,2021-012C,2024-08-14T01:44:32.242560,15.06424604,.0001235,53.0539,122.1849,72.2941,287.8182,0,U,47622,999,19316,-.41077E-3,-.6399E-4,0
STARLINK-1655,2021-012D,2024-08-13T19:40:20.102304,15.06351111,.0000663,53.0521,58.3243,36.7877,323.3157,0,U,47623,999,19404,.12708E-2,.18673E-3,0
STARLINK-1669,2021-012E,2024-08-13T22:42:48.829536,15.06370095,.0001089,53.0539,102.7610,76.4477,283.6634,0,U,47624,999,19342,.22716E-2,.33689E-3,0
STARLINK-1704,2021-012F,2024-08-13T22:44:06.121248,15.06322439,.0001446,53.0538,122.7497,98.7669,261.3484,0,U,47625,999,19365,.136E-2,.19991E-3,0
STARLINK-1761,2021-012G,2024-08-14T04:46:24.369888,15.06379543,.0001483,53.0546,121.6304,97.9916,262.1241,0,U,47626,999,19318,.14234E-2,.20972E-3,0
STARLINK-1972,2021-012H,2024-08-14T03:26:07.041120,15.06362594,.0001324,53.0569,26.8827,118.3394,241.7729,0,U,47627,999,19449,.12547E-2,.18438E-3,0
STARLINK-1973,2021-012J,2024-08-14T02:27:02.589120,15.06375315,.0001455,53.0528,122.0549,95.2987,264.8168,0,U,47628,999,19316,.29583E-2,.44029E-3,0
STARLINK-1974,2021-012K,2024-08-13T19:39:41.732064,15.06339792,.0001431,53.0550,3.3360,119.7484,240.3647,0,U,47629,999,19480,.21162E-2,.31329E-3,0
STARLINK-1983,2021-012L,2024-08-13T23:25:17.673600,15.06372548,.0001507,53.0530,102.7169,102.7524,257.3634,0,U,47630,999,19342,.17037E-2,.25167E-3,0
STARLINK-1992,2021-012N,2024-08-14T04:01:54.496704,15.06366479,.0001381,53.0529,26.7637,123.0270,237.0852,0,U,47632,999,19450,.22133E-2,.3281E-3,0
STARLINK-2009,2021-012P,2024-08-14T02:53:35.710080,15.06373919,.0001675,53.0537,122.0114,49.4498,310.6637,0,U,47633,999,19317,.27971E-2,.41599E-3,0
STARLINK-2010,2021-012Q,2024-08-14T02:17:47.318784,15.06379102,.0000836,53.0526,122.0944,66.3881,293.7196,0,U,47634,999,19316,.27673E-2,.41155E-3,0
STARLINK-2012,2021-012R,2024-08-14T04:29:48.965856,15.06383364,.0001072,53.0609,26.6763,124.6709,235.4381,0,U,47635,999,19450,.32052E-2,.47763E-3,0
STARLINK-2013,2021-012S,2024-08-14T03:34:44.342976,15.06385815,.0001352,53.0541,101.8508,85.8850,274.2293,0,U,47636,999,19345,.12991E-2,.19114E-3,0
STARLINK-2014,2021-012T,2024-08-13T22:05:39.763104,15.06382812,.0001151,53.0526,102.8780,88.7503,271.3617,0,U,47637,999,19394,.93668E-4,.1113E-4,0
STARLINK-2015,2021-012U,2024-08-14T04:24:30.773664,15.06403117,.0002426,53.0516,26.6926,90.8702,269.2565,0,U,47638,999,19451,.12652E-2,.18616E-3,0
STARLINK-2018,2021-012W,2024-08-14T00:36:56.537568,15.06373320,.0001419,53.0521,122.4089,89.1024,271.0127,0,U,47640,999,19315,.19022E-2,.28145E-3,0
STARLINK-2019,2021-012X,2024-08-14T04:03:16.853184,15.06387041,.00017,53.0563,26.7637,110.5034,249.6137,0,U,47641,999,19450,.22351E-2,.33156E-3,0
STARLINK-2020,2021-012Y,2024-08-13T23:10:01.479360,15.06394504,.0003055,53.0527,117.6760,90.0725,270.0614,0,U,47642,999,19372,.13094E-2,.19274E-3,0
STARLINK-2022,2021-012Z,2024-08-13T23:30:34.740000,15.06371621,.000133,53.0524,102.6133,101.6508,258.4631,0,U,47643,999,19342,.16812E-2,.24829E-3,0
STARLINK-2026,2021-012AA,2024-08-14T06:00:00.999648,15.59472420,.0003622,53.0503,83.1925,214.4862,141.8767,0,U,47644,999,19372,.12754E-2,.103741E-2,0
STARLINK-2027,2021-012AB,2024-08-13T08:24:18.377280,15.06380354,.0001396,53.0545,95.6779,74.1714,285.9429,0,U,47645,999,19396,-.30854E-3,-.4872E-4,0
STARLINK-2030,2021-012AD,2024-08-13T22:29:33.107136,15.06422574,.0001443,53.0544,122.8045,117.7542,242.3594,0,U,47647,999,19366,.22467E-2,.33362E-3,0
STARLINK-2031,2021-012AE,2024-08-13T22:16:16.932864,15.06342680,.000088,53.0536,102.8476,76.4285,283.6802,0,U,47648,999,19342,.22035E-2,.32641E-3,0
STARLINK-2032,2021-012AF,2024-08-13T22:21:35.155296,15.06383744,.000129,53.0529,102.8281,76.9959,283.1174,0,U,47649,999,19342,.16714E-2,.24691E-3,0
STARLINK-2033,2021-012AG,2024-08-13T23:35:53.328768,15.06429559,.0001962,53.0534,102.6001,66.9011,293.2185,0,U,47650,999,19342,.1825E-2,.27029E-3,0
