STARLINK-1528           
1 47620U 21012A   24226.95192453  .00018543  00000+0  12600-2 0  9990
2 47620  53.0526 122.7390 0001448  91.2713 268.8442 15.06413847193653
STARLINK-1609           
1 47621U 21012B   24227.01089852  .00031399  00000+0  21171-2 0  9994
2 47621  53.0546 122.4734 0001466  87.3967 272.7189 15.06406162193151
STARLINK-1645           
1 47622U 21012C   24227.07259540 -.00006399  00000+0 -41077-3 0  9996
2 47622  53.0539 122.1849 0001235  72.2941 287.8182 15.06424604193169
STARLINK-1655           
1 47623U 21012D   24226.81967711  .00018673  00000+0  12708-2 0  9998
2 47623  53.0521  58.3243 0000663  36.7877 323.3157 15.06351111194044
STARLINK-1669           
1 47624U 21012E   24226.94639849  .00033689  00000+0  22716-2 0  9995
2 47624  53.0539 102.7610 0001089  76.4477 283.6634 15.06370095193427
STARLINK-1704           
1 47625U 21012F   24226.94729307  .00019991  00000+0  13600-2 0  9997
2 47625  53.0538 122.7497 0001446  98.7669 261.3484 15.06322439193659
STARLINK-1761           
1 47626U 21012G   24227.19889317  .00020972  00000+0  14234-2 0  9999
2 47626  53.0546 121.6304 0001483  97.9916 262.1241 15.06379543193187
STARLINK-1972           
1 47627U 21012H   24227.14313705  .00018438  00000+0  12547-2 0  9997
2 47627  53.0569  26.8827 0001324 118.3394 241.7729 15.06362594194498
STARLINK-1973           
1 47628U 21012J   24227.10211330  .00044029  00000+0  29583-2 0  9998
2 47628  53.0528 122.0549 0001455  95.2987 264.8168 15.06375315193161
STARLINK-1974           
1 47629U 21012K   24226.81923301  .00031329  00000+0  21162-2 0  9998
2 47629  53.0550   3.3360 0001431 119.7484 240.3647 15.06339792194809
STARLINK-1983           
1 47630U 21012L   24226.97589900  .00025167  00000+0  17037-2 0  9999
2 47630  53.0530 102.7169 0001507 102.7524 257.3634 15.06372548193428
STARLINK-1992           
1 47632U 21012N   24227.16799186  .00032810  00000+0  22133-2 0  9998
2 47632  53.0529  26.7637 0001381 123.0270 237.0852 15.06366479194500
STARLINK-2009           
1 47633U 21012P   24227.12055220  .00041599  00000+0  27971-2 0  9998
2 47633  53.0537 122.0114 0001675  49.4498 310.6637 15.06373919193177
STARLINK-2010           
1 47634U 21012Q   24227.09568656  .00041155  00000+0  27673-2 0  9994
2 47634  53.0526 122.0944 0000836  66.3881 293.7196 15.06379102193169
STARLINK-2012           
1 47635U 21012R   24227.18737229  .00047763  00000+0  32052-2 0  9997
2 47635  53.0609  26.6763 0001072 124.6709 235.4381 15.06383364194503
STARLINK-2013           
1 47636U 21012S   24227.14912434  .00019114  00000+0  12991-2 0  9996
2 47636  53.0541 101.8508 0001352  85.8850 274.2293 15.06385815193457
STARLINK-2014           
1 47637U 21012T   24226.92059911  .00001113  00000+0  93668-4 0  9996
2 47637  53.0526 102.8780 0001151  88.7503 271.3617 15.06382812193944
STARLINK-2015           
1 47638U 21012U   24227.18368951  .00018616  00000+0  12652-2 0  9991
2 47638  53.0516  26.6926 0002426  90.8702 269.2565 15.06403117194514
STARLINK-2018           
1 47640U 21012W   24227.02565437  .00028145  00000+0  19022-2 0  9991
2 47640  53.0521 122.4089 0001419  89.1024 271.0127 15.06373320193153
STARLINK-2019           
1 47641U 21012X   24227.16894506  .00033156  00000+0  22351-2 0  9996
2 47641  53.0563  26.7637 0001700 110.5034 249.6137 15.06387041194505
STARLINK-2020           
1 47642U 21012Y   24226.96529490  .00019274  00000+0  13094-2 0  9990
2 47642  53.0527 117.6760 0003055  90.0725 270.0614 15.06394504193720
STARLINK-2022           
1 47643U 21012Z   24226.97956875  .00024829  00000+0  16812-2 0  9996
2 47643  53.0524 102.6133 0001330 101.6508 258.4631 15.06371621193429
STARLINK-2026           
1 47644U 21012AA  24227.25001157  .00103741  00000+0  12754-2 0  9995
2 47644  53.0503  83.1925 0003622 214.4862 141.8767 15.59472420193726
STARLINK-2027           
1 47645U 21012AB  24226.35021270 -.00004872  00000+0 -30854-3 0  9993
2 47645  53.0545  95.6779 0001396  74.1714 285.9429 15.06380354193968
STARLINK-2030           
1 47647U 21012AD  24226.93718874  .00033362  00000+0  22467-2 0  9996
2 47647  53.0544 122.8045 0001443 117.7542 242.3594 15.06422574193662
STARLINK-2031           
1 47648U 21012AE  24226.92797376  .00032641  00000+0  22035-2 0  9990
2 47648  53.0536 102.8476 0000880  76.4285 283.6802 15.06342680193422
STARLINK-2032           
1 47649U 21012AF  24226.93165689  .00024691  00000+0  16714-2 0  9991
2 47649  53.0529 102.8281 0001290  76.9959 283.1174 15.06383744193421
STARLINK-2033           
1 47650U 21012AG  24226.98325612  .00027029  00000+0  18250-2 0  9997
2 47650  53.0534 102.6001 0001962  66.9011 293.2185 15.06429559193420
